start=new Date('2022-05-17T00:00:00.000Z').valueOf();
sats=[{"FILE":"3448591","MEAN_ELEMENT_THEORY":"SGP4","EPHEMERIS_TYPE":"0","APOAPSIS":"548.431","TLE_LINE1":"1 45074U 20006AG  22136.45306157  .00000734  00000-0  68193-4 0  9998","SEMIMAJOR_AXIS":"6925.344","PERIOD":"95.592","ECCENTRICITY":"0.00017650","MEAN_MOTION":"15.06401612","MEAN_MOTION_DDOT":"0.0000000000000","ARG_OF_PERICENTER":"63.3647","EPOCH":"2022-05-16T10:52:24.519648","TIME_SYSTEM":"UTC","MEAN_MOTION_DOT":"0.00000734","DECAY_DATE":null,"MEAN_ANOMALY":"296.7523","CENTER_NAME":"EARTH","NORAD_CAT_ID":"45074","GP_ID":"203694778","INCLINATION":"53.0555","LAUNCH_DATE":"2020-01-29","SITE":"AFETR","TLE_LINE2":"2 45074  53.0555  41.1043 0001765  63.3647 296.7523 15.06401612126746","RA_OF_ASC_NODE":"41.1043","OBJECT_NAME":"STARLINK-1172","RCS_SIZE":"LARGE","REF_FRAME":"TEME","OBJECT_ID":"2020-006AG","CLASSIFICATION_TYPE":"U","BSTAR":"0.00006819300000","ELEMENT_SET_NO":"999","COUNTRY_CODE":"US","PERIAPSIS":"545.986","OBJECT_TYPE":"PAYLOAD","REV_AT_EPOCH":"12674"},{"EPHEMERIS_TYPE":"0","FILE":"3448591","MEAN_ELEMENT_THEORY":"SGP4","TLE_LINE1":"1 45075U 20006AH  22136.15450855 -.00000354  00000-0 -48641-5 0  9998","APOAPSIS":"548.407","MEAN_MOTION_DDOT":"0.0000000000000","ARG_OF_PERICENTER":"66.6856","MEAN_MOTION_DOT":"-0.00000354","TIME_SYSTEM":"UTC","EPOCH":"2022-05-16T03:42:29.538720","MEAN_MOTION":"15.06386188","PERIOD":"95.593","ECCENTRICITY":"0.00016620","SEMIMAJOR_AXIS":"6925.391","CENTER_NAME":"EARTH","GP_ID":"203695028","INCLINATION":"53.0551","LAUNCH_DATE":"2020-01-29","NORAD_CAT_ID":"45075","MEAN_ANOMALY":"293.4308","DECAY_DATE":null,"ELEMENT_SET_NO":"999","BSTAR":"-0.00000486410000","CLASSIFICATION_TYPE":"U","REV_AT_EPOCH":"12670","COUNTRY_CODE":"US","OBJECT_TYPE":"PAYLOAD","PERIAPSIS":"546.105","RA_OF_ASC_NODE":"42.4332","SITE":"AFETR","TLE_LINE2":"2 45075  53.0551  42.4332 0001662  66.6856 293.4308 15.06386188126703","REF_FRAME":"TEME","OBJECT_ID":"2020-006AH","RCS_SIZE":"LARGE","OBJECT_NAME":"STARLINK-1174"},{"EPHEMERIS_TYPE":"0","FILE":"3448591","MEAN_ELEMENT_THEORY":"SGP4","TLE_LINE1":"1 45076U 20006AJ  22136.42726367 -.00000316  00000-0 -22882-5 0  9990","APOAPSIS":"548.233","ARG_OF_PERICENTER":"59.7027","MEAN_MOTION_DDOT":"0.0000000000000","MEAN_MOTION_DOT":"-0.00000316","TIME_SYSTEM":"UTC","EPOCH":"2022-05-16T10:15:15.581088","MEAN_MOTION":"15.06396431","ECCENTRICITY":"0.00014560","PERIOD":"95.592","SEMIMAJOR_AXIS":"6925.359","CENTER_NAME":"EARTH","GP_ID":"203696279","INCLINATION":"53.0563","LAUNCH_DATE":"2020-01-29","NORAD_CAT_ID":"45076","MEAN_ANOMALY":"300.4106","DECAY_DATE":null,"ELEMENT_SET_NO":"999","BSTAR":"-0.00000228820000","CLASSIFICATION_TYPE":"U","REV_AT_EPOCH":"12674","COUNTRY_CODE":"US","OBJECT_TYPE":"PAYLOAD","PERIAPSIS":"546.216","RA_OF_ASC_NODE":"41.2151","TLE_LINE2":"2 45076  53.0563  41.2151 0001456  59.7027 300.4106 15.06396431126748","SITE":"AFETR","REF_FRAME":"TEME","OBJECT_ID":"2020-006AJ","RCS_SIZE":"LARGE","OBJECT_NAME":"STARLINK-1180"},{"TLE_LINE1":"1 45078U 20006AL  22136.44568661  .00001937  00000-0  14889-3 0  9999","APOAPSIS":"548.696","MEAN_ELEMENT_THEORY":"SGP4","FILE":"3448591","EPHEMERIS_TYPE":"0","EPOCH":"2022-05-16T10:41:47.323104","TIME_SYSTEM":"UTC","MEAN_MOTION_DOT":"0.00001937","MEAN_MOTION_DDOT":"0.0000000000000","ARG_OF_PERICENTER":"61.2997","ECCENTRICITY":"0.00021540","PERIOD":"95.592","SEMIMAJOR_AXIS":"6925.339","MEAN_MOTION":"15.06403158","NORAD_CAT_ID":"45078","GP_ID":"203696020","LAUNCH_DATE":"2020-01-29","INCLINATION":"53.0557","CENTER_NAME":"EARTH","MEAN_ANOMALY":"298.8209","DECAY_DATE":null,"COUNTRY_CODE":"US","OBJECT_TYPE":"PAYLOAD","PERIAPSIS":"545.712","REV_AT_EPOCH":"12673","CLASSIFICATION_TYPE":"U","BSTAR":"0.00014889000000","ELEMENT_SET_NO":"999","OBJECT_NAME":"STARLINK-1177","REF_FRAME":"TEME","OBJECT_ID":"2020-006AL","RCS_SIZE":"LARGE","RA_OF_ASC_NODE":"41.1434","TLE_LINE2":"2 45078  53.0557  41.1434 0002154  61.2997 298.8209 15.06403158126734","SITE":"AFETR"},{"CLASSIFICATION_TYPE":"U","ELEMENT_SET_NO":"999","BSTAR":"-0.00000051161000","PERIAPSIS":"546.252","COUNTRY_CODE":"US","OBJECT_TYPE":"PAYLOAD","REV_AT_EPOCH":"12673","RA_OF_ASC_NODE":"41.2217","TLE_LINE2":"2 45079  53.0549  41.2217 0001419  87.3223 272.7928 15.06393009126732","SITE":"AFETR","OBJECT_NAME":"STARLINK-1149","REF_FRAME":"TEME","OBJECT_ID":"2020-006AM","RCS_SIZE":"LARGE","CENTER_NAME":"EARTH","NORAD_CAT_ID":"45079","INCLINATION":"53.0549","GP_ID":"203695278","LAUNCH_DATE":"2020-01-29","MEAN_ANOMALY":"272.7928","DECAY_DATE":null,"ARG_OF_PERICENTER":"87.3223","MEAN_MOTION_DDOT":"0.0000000000000","EPOCH":"2022-05-16T10:09:57.151296","TIME_SYSTEM":"UTC","MEAN_MOTION_DOT":"-0.00000289","PERIOD":"95.593","ECCENTRICITY":"0.00014190","SEMIMAJOR_AXIS":"6925.370","MEAN_MOTION":"15.06393009","FILE":"3448591","EPHEMERIS_TYPE":"0","MEAN_ELEMENT_THEORY":"SGP4","TLE_LINE1":"1 45079U 20006AM  22136.42357814 -.00000289  00000-0 -51161-6 0  9992","APOAPSIS":"548.218"},{"TIME_SYSTEM":"UTC","EPOCH":"2022-05-16T10:20:34.184544","MEAN_MOTION_DOT":"0.00003009","MEAN_MOTION_DDOT":"0.0000000000000","ARG_OF_PERICENTER":"56.9346","ECCENTRICITY":"0.00017720","PERIOD":"95.592","SEMIMAJOR_AXIS":"6925.359","MEAN_MOTION":"15.06396502","TLE_LINE1":"1 45080U 20006AN  22136.43095121  .00003009  00000-0  22085-3 0  9996","APOAPSIS":"548.451","MEAN_ELEMENT_THEORY":"SGP4","FILE":"3448591","EPHEMERIS_TYPE":"0","COUNTRY_CODE":"US","PERIAPSIS":"545.997","OBJECT_TYPE":"PAYLOAD","REV_AT_EPOCH":"12674","CLASSIFICATION_TYPE":"U","ELEMENT_SET_NO":"999","BSTAR":"0.00022085000000","OBJECT_NAME":"STARLINK-1153","REF_FRAME":"TEME","OBJECT_ID":"2020-006AN","RCS_SIZE":"LARGE","RA_OF_ASC_NODE":"41.1965","TLE_LINE2":"2 45080  53.0553  41.1965 0001772  56.9346 303.1813 15.06396502126742","SITE":"AFETR","NORAD_CAT_ID":"45080","INCLINATION":"53.0553","GP_ID":"203695528","LAUNCH_DATE":"2020-01-29","CENTER_NAME":"EARTH","MEAN_ANOMALY":"303.1813","DECAY_DATE":null},{"MEAN_MOTION":"15.06391760","ECCENTRICITY":"0.00015070","PERIOD":"95.593","SEMIMAJOR_AXIS":"6925.374","MEAN_MOTION_DDOT":"0.0000000000000","ARG_OF_PERICENTER":"55.2404","MEAN_MOTION_DOT":"0.00000432","TIME_SYSTEM":"UTC","EPOCH":"2022-05-16T03:26:33.302400","EPHEMERIS_TYPE":"0","FILE":"3448591","MEAN_ELEMENT_THEORY":"SGP4","TLE_LINE1":"1 45081U 20006AP  22136.14344100  .00000432  00000-0  47921-4 0  9993","APOAPSIS":"548.282","RA_OF_ASC_NODE":"42.4950","TLE_LINE2":"2 45081  53.0549  42.4950 0001507  55.2404 304.8727 15.06391760126708","SITE":"AFETR","REF_FRAME":"TEME","OBJECT_ID":"2020-006AP","RCS_SIZE":"LARGE","OBJECT_NAME":"STARLINK-1151","ELEMENT_SET_NO":"999","BSTAR":"0.00004792100000","CLASSIFICATION_TYPE":"U","REV_AT_EPOCH":"12670","OBJECT_TYPE":"PAYLOAD","COUNTRY_CODE":"US","PERIAPSIS":"546.195","MEAN_ANOMALY":"304.8727","DECAY_DATE":null,"CENTER_NAME":"EARTH","INCLINATION":"53.0549","GP_ID":"203695780","LAUNCH_DATE":"2020-01-29","NORAD_CAT_ID":"45081"},{"MEAN_ELEMENT_THEORY":"SGP4","FILE":"3448591","EPHEMERIS_TYPE":"0","TLE_LINE1":"1 45082U 20006AQ  22136.13237861  .00000429  00000-0  47722-4 0  9993","APOAPSIS":"548.560","MEAN_MOTION":"15.06393338","PERIOD":"95.593","ECCENTRICITY":"0.00019150","SEMIMAJOR_AXIS":"6925.369","MEAN_MOTION_DDOT":"0.0000000000000","ARG_OF_PERICENTER":"43.0266","MEAN_MOTION_DOT":"0.00000429","EPOCH":"2022-05-16T03:10:37.511904","TIME_SYSTEM":"UTC","MEAN_ANOMALY":"317.0872","DECAY_DATE":null,"CENTER_NAME":"EARTH","LAUNCH_DATE":"2020-01-29","GP_ID":"203696520","INCLINATION":"53.0565","NORAD_CAT_ID":"45082","RA_OF_ASC_NODE":"42.5405","SITE":"AFETR","TLE_LINE2":"2 45082  53.0565  42.5405 0001915  43.0266 317.0872 15.06393338126695","OBJECT_ID":"2020-006AQ","REF_FRAME":"TEME","RCS_SIZE":"LARGE","OBJECT_NAME":"STARLINK-1160","BSTAR":"0.00004772200000","ELEMENT_SET_NO":"999","CLASSIFICATION_TYPE":"U","REV_AT_EPOCH":"12669","PERIAPSIS":"545.908","COUNTRY_CODE":"US","OBJECT_TYPE":"PAYLOAD"},{"FILE":"3448591","MEAN_ELEMENT_THEORY":"SGP4","EPHEMERIS_TYPE":"0","TLE_LINE1":"1 45083U 20006AR  22136.49545566 -.00000828  00000-0 -36692-4 0  9996","APOAPSIS":"548.430","MEAN_MOTION_DDOT":"0.0000000000000","ARG_OF_PERICENTER":"56.3782","TIME_SYSTEM":"UTC","EPOCH":"2022-05-16T11:53:27.369024","MEAN_MOTION_DOT":"-0.00000828","PERIOD":"95.593","ECCENTRICITY":"0.00017160","SEMIMAJOR_AXIS":"6925.377","MEAN_MOTION":"15.06390835","CENTER_NAME":"EARTH","NORAD_CAT_ID":"45083","GP_ID":"203694779","INCLINATION":"53.0567","LAUNCH_DATE":"2020-01-29","MEAN_ANOMALY":"303.7371","DECAY_DATE":null,"CLASSIFICATION_TYPE":"U","ELEMENT_SET_NO":"999","BSTAR":"-0.00003669200000","PERIAPSIS":"546.053","COUNTRY_CODE":"US","OBJECT_TYPE":"PAYLOAD","REV_AT_EPOCH":"12647","RA_OF_ASC_NODE":"60.9236","SITE":"AFETR","TLE_LINE2":"2 45083  53.0567  60.9236 0001716  56.3782 303.7371 15.06390835126474","OBJECT_NAME":"STARLINK-1190","OBJECT_ID":"2020-006AR","REF_FRAME":"TEME","RCS_SIZE":"LARGE"},{"OBJECT_NAME":"STARLINK-1173","RCS_SIZE":"LARGE","REF_FRAME":"TEME","OBJECT_ID":"2020-006AS","TLE_LINE2":"2 45084  53.0562  21.2965 0001567  65.8305 294.2848 15.06371156127029","SITE":"AFETR","RA_OF_ASC_NODE":"21.2965","COUNTRY_CODE":"US","PERIAPSIS":"546.217","OBJECT_TYPE":"PAYLOAD","REV_AT_EPOCH":"12702","CLASSIFICATION_TYPE":"U","ELEMENT_SET_NO":"999","BSTAR":"-0.00026014000000","DECAY_DATE":null,"MEAN_ANOMALY":"294.2848","NORAD_CAT_ID":"45084","GP_ID":"203695029","INCLINATION":"53.0562","LAUNCH_DATE":"2020-01-29","CENTER_NAME":"EARTH","SEMIMAJOR_AXIS":"6925.437","PERIOD":"95.594","ECCENTRICITY":"0.00015670","MEAN_MOTION":"15.06371156","TIME_SYSTEM":"UTC","EPOCH":"2022-05-16T09:51:23.529600","MEAN_MOTION_DOT":"-0.00004151","MEAN_MOTION_DDOT":"0.0000000000000","ARG_OF_PERICENTER":"65.8305","APOAPSIS":"548.387","TLE_LINE1":"1 45084U 20006AS  22136.41068900 -.00004151  00000-0 -26014-3 0  9990","MEAN_ELEMENT_THEORY":"SGP4","FILE":"3448591","EPHEMERIS_TYPE":"0"}];
